{
  "type": "FeatureCollection",
  "features": [
    {
      "type": "Feature",
      "properties": {
        "norad_id": 31422,
        "name": "FENGYUN 1C DEB",
        "group": "fengyun-1c-debris",
        "lat": -75.98921343564237,
        "lon": 36.36362331713309,
        "alt_km": 845.4778030122143,
        "timestamp": "2025-12-27T15:27:11.472961+00:00",
        "meta_object_name": "FENGYUN 1C DEB",
        "meta_object_id": "1999-025BTJ",
        "meta_epoch": "2025-12-25T04:32:49.257600",
        "meta_mean_motion": 14.09637595,
        "meta_eccentricity": 0.00336758,
        "meta_inclination": 98.7605,
        "meta_ra_of_asc_node": 355.8078,
        "meta_arg_of_pericenter": 264.7622,
        "meta_mean_anomaly": 167.559,
        "meta_ephemeris_type": 0,
        "meta_classification_type": "U",
        "meta_norad_cat_id": 31422,
        "meta_element_set_no": 999,
        "meta_rev_at_epoch": 95837,
        "meta_bstar": 0.00030191894,
        "meta_mean_motion_dot": 4.89e-06,
        "meta_mean_motion_ddot": 0,
        "tle_line1": "1 31422U 99025BTJ 25359.18945900  .00000489  00000+0  30192-3 0  9995",
        "tle_line2": "2 31422  98.7605 355.8078 0033675 264.7622 167.5590 14.09637595958372"
      },
      "geometry": {
        "type": "Point",
        "coordinates": [
          36.36362331713309,
          -75.98921343564237
        ]
      }
    },
    {
      "type": "Feature",
      "properties": {
        "norad_id": 31423,
        "name": "FENGYUN 1C DEB",
        "group": "fengyun-1c-debris",
        "lat": 30.573783801075944,
        "lon": -23.03203063601238,
        "alt_km": 826.6053322347107,
        "timestamp": "2025-12-27T15:27:11.472971+00:00",
        "meta_object_name": "FENGYUN 1C DEB",
        "meta_object_id": "1999-025BTK",
        "meta_epoch": "2025-12-25T16:03:20.256480",
        "meta_mean_motion": 14.229799,
        "meta_eccentricity": 0.00367635,
        "meta_inclination": 98.5847,
        "meta_ra_of_asc_node": 340.1629,
        "meta_arg_of_pericenter": 156.3859,
        "meta_mean_anomaly": 203.9017,
        "meta_ephemeris_type": 0,
        "meta_classification_type": "U",
        "meta_norad_cat_id": 31423,
        "meta_element_set_no": 999,
        "meta_rev_at_epoch": 97152,
        "meta_bstar": 0.00014479863,
        "meta_mean_motion_dot": 2.86e-06,
        "meta_mean_motion_ddot": 0,
        "tle_line1": "1 31423U 99025BTK 25359.66898445  .00000286  00000+0  14480-3 0  9997",
        "tle_line2": "2 31423  98.5847 340.1629 0036763 156.3859 203.9017 14.22979900971522"
      },
      "geometry": {
        "type": "Point",
        "coordinates": [
          -23.03203063601238,
          30.573783801075944
        ]
      }
    },
    {
      "type": "Feature",
      "properties": {
        "norad_id": 31424,
        "name": "FENGYUN 1C DEB",
        "group": "fengyun-1c-debris",
        "lat": 81.10211549809604,
        "lon": -27.594562981995434,
        "alt_km": 794.9787300175267,
        "timestamp": "2025-12-27T15:27:11.472981+00:00",
        "meta_object_name": "FENGYUN 1C DEB",
        "meta_object_id": "1999-025BTL",
        "meta_epoch": "2025-12-26T01:32:08.802528",
        "meta_mean_motion": 14.08369117,
        "meta_eccentricity": 0.00942959,
        "meta_inclination": 98.4797,
        "meta_ra_of_asc_node": 43.2634,
        "meta_arg_of_pericenter": 67.8382,
        "meta_mean_anomaly": 293.2764,
        "meta_ephemeris_type": 0,
        "meta_classification_type": "U",
        "meta_norad_cat_id": 31424,
        "meta_element_set_no": 999,
        "meta_rev_at_epoch": 63358,
        "meta_bstar": 0.00025728605,
        "meta_mean_motion_dot": 4.19e-06,
        "meta_mean_motion_ddot": 0,
        "tle_line1": "1 31424U 99025BTL 25360.06399077  .00000419  00000+0  25729-3 0  9997",
        "tle_line2": "2 31424  98.4797  43.2634 0094295  67.8382 293.2764 14.08369117633583"
      },
      "geometry": {
        "type": "Point",
        "coordinates": [
          -27.594562981995434,
          81.10211549809604
        ]
      }
    },
    {
      "type": "Feature",
      "properties": {
        "norad_id": 31426,
        "name": "FENGYUN 1C DEB",
        "group": "fengyun-1c-debris",
        "lat": 12.223513491288815,
        "lon": 156.26316643783642,
        "alt_km": 1085.0676151869257,
        "timestamp": "2025-12-27T15:27:11.472992+00:00",
        "meta_object_name": "FENGYUN 1C DEB",
        "meta_object_id": "1999-025BTN",
        "meta_epoch": "2025-12-24T16:38:35.634336",
        "meta_mean_motion": 13.9016565,
        "meta_eccentricity": 0.03242634,
        "meta_inclination": 98.5802,
        "meta_ra_of_asc_node": 155.4094,
        "meta_arg_of_pericenter": 153.1493,
        "meta_mean_anomaly": 224.4865,
        "meta_ephemeris_type": 0,
        "meta_classification_type": "U",
        "meta_norad_cat_id": 31426,
        "meta_element_set_no": 999,
        "meta_rev_at_epoch": 93739,
        "meta_bstar": 0.0020398597,
        "meta_mean_motion_dot": 3.82e-05,
        "meta_mean_motion_ddot": 0,
        "tle_line1": "1 31426U 99025BTN 25358.69346799  .00003820  00000+0  20399-2 0  9994",
        "tle_line2": "2 31426  98.5802 155.4094 0324263 153.1493 224.4865 13.90165650937392"
      },
      "geometry": {
        "type": "Point",
        "coordinates": [
          156.26316643783642,
          12.223513491288815
        ]
      }
    },
    {
      "type": "Feature",
      "properties": {
        "norad_id": 31427,
        "name": "FENGYUN 1C DEB",
        "group": "fengyun-1c-debris",
        "lat": 31.128372137513704,
        "lon": 106.06205512416406,
        "alt_km": 683.745514344283,
        "timestamp": "2025-12-27T15:27:11.473001+00:00",
        "meta_object_name": "FENGYUN 1C DEB",
        "meta_object_id": "1999-025BTP",
        "meta_epoch": "2025-12-27T02:08:31.742592",
        "meta_mean_motion": 14.58963822,
        "meta_eccentricity": 0.00311117,
        "meta_inclination": 98.6682,
        "meta_ra_of_asc_node": 110.7696,
        "meta_arg_of_pericenter": 333.162,
        "meta_mean_anomaly": 26.7967,
        "meta_ephemeris_type": 0,
        "meta_classification_type": "U",
        "meta_norad_cat_id": 31427,
        "meta_element_set_no": 999,
        "meta_rev_at_epoch": 97090,
        "meta_bstar": 0.0027634826,
        "meta_mean_motion_dot": 0.00013022,
        "meta_mean_motion_ddot": 0,
        "tle_line1": "1 31427U 99025BTP 25361.08925628  .00013022  00000+0  27635-2 0  9991",
        "tle_line2": "2 31427  98.6682 110.7696 0031111 333.1620  26.7967 14.58963822970903"
      },
      "geometry": {
        "type": "Point",
        "coordinates": [
          106.06205512416406,
          31.128372137513704
        ]
      }
    },
    {
      "type": "Feature",
      "properties": {
        "norad_id": 31428,
        "name": "FENGYUN 1C DEB",
        "group": "fengyun-1c-debris",
        "lat": -48.99858028195922,
        "lon": -15.48353218055717,
        "alt_km": 801.5705935047235,
        "timestamp": "2025-12-27T15:27:11.473011+00:00",
        "meta_object_name": "FENGYUN 1C DEB",
        "meta_object_id": "1999-025BTQ",
        "meta_epoch": "2025-12-26T21:37:50.039040",
        "meta_mean_motion": 14.42080776,
        "meta_eccentricity": 0.0064532,
        "meta_inclination": 99.0398,
        "meta_ra_of_asc_node": 333.1783,
        "meta_arg_of_pericenter": 112.1562,
        "meta_mean_anomaly": 305.2891,
        "meta_ephemeris_type": 0,
        "meta_classification_type": "U",
        "meta_norad_cat_id": 31428,
        "meta_element_set_no": 999,
        "meta_rev_at_epoch": 97714,
        "meta_bstar": 0.00088478,
        "meta_mean_motion_dot": 2.932e-05,
        "meta_mean_motion_ddot": 0,
        "tle_line1": "1 31428U 99025BTQ 25360.90127360  .00002932  00000+0  88478-3 0  9990",
        "tle_line2": "2 31428  99.0398 333.1783 0064532 112.1562 305.2891 14.42080776977149"
      },
      "geometry": {
        "type": "Point",
        "coordinates": [
          -15.48353218055717,
          -48.99858028195922
        ]
      }
    },
    {
      "type": "Feature",
      "properties": {
        "norad_id": 31429,
        "name": "FENGYUN 1C DEB",
        "group": "fengyun-1c-debris",
        "lat": 37.230154695674706,
        "lon": 43.6986222412093,
        "alt_km": 803.9900425484775,
        "timestamp": "2025-12-27T15:27:11.473022+00:00",
        "meta_object_name": "FENGYUN 1C DEB",
        "meta_object_id": "1999-025BTR",
        "meta_epoch": "2025-12-22T22:45:46.278720",
        "meta_mean_motion": 14.22608914,
        "meta_eccentricity": 0.00141272,
        "meta_inclination": 98.6873,
        "meta_ra_of_asc_node": 45.7417,
        "meta_arg_of_pericenter": 35.194,
        "meta_mean_anomaly": 88.8738,
        "meta_ephemeris_type": 0,
        "meta_classification_type": "U",
        "meta_norad_cat_id": 31429,
        "meta_element_set_no": 999,
        "meta_rev_at_epoch": 96098,
        "meta_bstar": 0.00092186864,
        "meta_mean_motion_dot": 2.019e-05,
        "meta_mean_motion_ddot": 0,
        "tle_line1": "1 31429U 99025BTR 25356.94845230  .00002019  00000+0  92187-3 0  9991",
        "tle_line2": "2 31429  98.6873  45.7417 0014127  35.1940  88.8738 14.22608914960988"
      },
      "geometry": {
        "type": "Point",
        "coordinates": [
          43.6986222412093,
          37.230154695674706
        ]
      }
    }
  ]
}